{"type": "FeatureCollection", "features": [ {"type": "Feature", "properties": {"norad_id": 33153, "name": "INTELSAT 25 (IS-25)", "group": "intelsat", "lat": -1.140976763016134, "lon": -67.42873943352524, "alt_km": 35768.09170089475, "timestamp": "2025-12-17T15:50:09.444635+00:00", "meta": {"OBJECT_NAME": "INTELSAT 25 (IS-25)", "OBJECT_ID": "2008-034A", "EPOCH": "2025-12-17T04:36:57.636864", "MEAN_MOTION": 1.00271025, "ECCENTRICITY": 0.00048196, "INCLINATION": 2.2387, "RA_OF_ASC_NODE": 82.6028, "ARG_OF_PERICENTER": 184.2545, "MEAN_ANOMALY": 216.958, "EPHEMERIS_TYPE": 0, "CLASSIFICATION_TYPE": "U", "NORAD_CAT_ID": 33153, "ELEMENT_SET_NO": 999, "REV_AT_EPOCH": 6387, "BSTAR": 0, "MEAN_MOTION_DOT": -2.01e-06, "MEAN_MOTION_DDOT": 0}, "tle": {"line1": "1 33153U 08034A   25351.19233376 -.00000201  00000+0  00000+0 0  9992", "line2": "2 33153   2.2387  82.6028 0004819 184.2545 216.9580  1.00271025 63879"}}, "geometry": {"type": "Point", "coordinates": [-67.42873943352524, -1.140976763016134]}}, {"type": "Feature", "properties": {"norad_id": 33376, "name": "GALAXY 19 (G-19)", "group": "intelsat", "lat": -0.0343014036524987, "lon": -132.95938247836446, "alt_km": 35778.239471055946, "timestamp": "2025-12-17T15:50:09.444646+00:00", "meta": {"OBJECT_NAME": "GALAXY 19 (G-19)", "OBJECT_ID": "2008-045A", "EPOCH": "2025-12-17T04:43:38.845632", "MEAN_MOTION": 1.00271073, "ECCENTRICITY": 0.00025264, "INCLINATION": 0.0231, "RA_OF_ASC_NODE": 281.4953, "ARG_OF_PERICENTER": 346.7444, "MEAN_ANOMALY": 151.7496, "EPHEMERIS_TYPE": 0, "CLASSIFICATION_TYPE": "U", "NORAD_CAT_ID": 33376, "ELEMENT_SET_NO": 999, "REV_AT_EPOCH": 6307, "BSTAR": 0, "MEAN_MOTION_DOT": -1.14e-06, "MEAN_MOTION_DDOT": 0}, "tle": {"line1": "1 33376U 08045A   25351.19697738 -.00000114  00000+0  00000+0 0  9990", "line2": "2 33376   0.0231 281.4953 0002526 346.7444 151.7496  1.00271073 63079"}}, "geometry": {"type": "Point", "coordinates": [-132.95938247836446, -0.0343014036524987]}}, {"type": "Feature", "properties": {"norad_id": 35493, "name": "FM-5", "group": "intelsat", "lat": -0.03446427231532822, "lon": -122.07353698708508, "alt_km": 35786.34902036899, "timestamp": "2025-12-17T15:50:09.444658+00:00", "meta": {"OBJECT_NAME": "FM-5", "OBJECT_ID": "2009-034A", "EPOCH": "2025-12-17T04:21:21.631104", "MEAN_MOTION": 1.00270676, "ECCENTRICITY": 8.339e-05, "INCLINATION": 0.0203, "RA_OF_ASC_NODE": 291.2206, "ARG_OF_PERICENTER": 218.2169, "MEAN_ANOMALY": 275.8228, "EPHEMERIS_TYPE": 0, "CLASSIFICATION_TYPE": "U", "NORAD_CAT_ID": 35493, "ELEMENT_SET_NO": 999, "REV_AT_EPOCH": 4481, "BSTAR": 0, "MEAN_MOTION_DOT": -1.76e-06, "MEAN_MOTION_DDOT": 0}, "tle": {"line1": "1 35493U 09034A   25351.18150036 -.00000176  00000+0  00000+0 0  9993", "line2": "2 35493   0.0203 291.2206 0000833 218.2169 275.8228  1.00270676 44816"}}, "geometry": {"type": "Point", "coordinates": [-122.07353698708508, -0.03446427231532822]}}, {"type": "Feature", "properties": {"norad_id": 36097, "name": "INTELSAT 14 (IS-14)", "group": "intelsat", "lat": -0.027920981837031227, "lon": -80.92508569855882, "alt_km": 35775.68225625665, "timestamp": "2025-12-17T15:50:09.444686+00:00", "meta": {"OBJECT_NAME": "INTELSAT 14 (IS-14)", "OBJECT_ID": "2009-064A", "EPOCH": "2025-12-17T04:33:05.507712", "MEAN_MOTION": 1.00272273, "ECCENTRICITY": 0.0002442, "INCLINATION": 0.0132, "RA_OF_ASC_NODE": 319.0001, "ARG_OF_PERICENTER": 316.2318, "MEAN_ANOMALY": 194.1226, "EPHEMERIS_TYPE": 0, "CLASSIFICATION_TYPE": "U", "NORAD_CAT_ID": 36097, "ELEMENT_SET_NO": 999, "REV_AT_EPOCH": 5878, "BSTAR": 0, "MEAN_MOTION_DOT": -2.49e-06, "MEAN_MOTION_DDOT": 0}, "tle": {"line1": "1 36097U 09064A   25351.18964708 -.00000249  00000+0  00000+0 0  9997", "line2": "2 36097   0.0132 319.0001 0002442 316.2318 194.1226  1.00272273 58780"}}, "geometry": {"type": "Point", "coordinates": [-80.92508569855882, -0.027920981837031227]}}, {"type": "Feature", "properties": {"norad_id": 36106, "name": "INTELSAT 15 (IS-15)", "group": "intelsat", "lat": 0.03979355255234654, "lon": 49.23443101427682, "alt_km": 35792.31623448768, "timestamp": "2025-12-17T15:50:09.444700+00:00", "meta": {"OBJECT_NAME": "INTELSAT 15 (IS-15)", "OBJECT_ID": "2009-067A", "EPOCH": "2025-12-17T02:39:38.687616", "MEAN_MOTION": 1.00271701, "ECCENTRICITY": 0.00021663, "INCLINATION": 0.0165, "RA_OF_ASC_NODE": 336.2151, "ARG_OF_PERICENTER": 300.7705, "MEAN_ANOMALY": 294.0735, "EPHEMERIS_TYPE": 0, "CLASSIFICATION_TYPE": "U", "NORAD_CAT_ID": 36106, "ELEMENT_SET_NO": 999, "REV_AT_EPOCH": 3940, "BSTAR": 0, "MEAN_MOTION_DOT": -1.61e-06, "MEAN_MOTION_DDOT": 0}, "tle": {"line1": "1 36106U 09067A   25351.11086444 -.00000161  00000+0  00000+0 0  9999", "line2": "2 36106   0.0165 336.2151 0002166 300.7705 294.0735  1.00271701 39403"}}, "geometry": {"type": "Point", "coordinates": [49.23443101427682, 0.03979355255234654]}}, {"type": "Feature", "properties": {"norad_id": 36131, "name": "DIRECTV 12", "group": "intelsat", "lat": -0.007749573447083893, "lon": -138.66422864561883, "alt_km": 35787.54786139693, "timestamp": "2025-12-17T15:50:09.444712+00:00", "meta": {"OBJECT_NAME": "DIRECTV 12", "OBJECT_ID": "2009-075A", "EPOCH": "2025-12-16T21:25:45.354720", "MEAN_MOTION": 1.0026941, "ECCENTRICITY": 2.927e-05, "INCLINATION": 0.0474, "RA_OF_ASC_NODE": 153.0888, "ARG_OF_PERICENTER": 198.3668, "MEAN_ANOMALY": 313.0448, "EPHEMERIS_TYPE": 0, "CLASSIFICATION_TYPE": "U", "NORAD_CAT_ID": 36131, "ELEMENT_SET_NO": 999, "REV_AT_EPOCH": 4472, "BSTAR": 0, "MEAN_MOTION_DOT": -7.9e-07, "MEAN_MOTION_DDOT": 0}, "tle": {"line1": "1 36131U 09075A   25350.89288605 -.00000079  00000+0  00000+0 0  9991", "line2": "2 36131   0.0474 153.0888 0000292 198.3668 313.0448  1.00269410 44721"}}, "geometry": {"type": "Point", "coordinates": [-138.66422864561883, -0.007749573447083893]}}, {"type": "Feature", "properties": {"norad_id": 36397, "name": "INTELSAT 16 (IS-16)", "group": "intelsat", "lat": -0.03687263605133997, "lon": -112.1477622258474, "alt_km": 35779.011216641215, "timestamp": "2025-12-17T15:50:09.444724+00:00", "meta": {"OBJECT_NAME": "INTELSAT 16 (IS-16)", "OBJECT_ID": "2010-006A", "EPOCH": "2025-12-17T04:24:13.855680", "MEAN_MOTION": 1.00270972, "ECCENTRICITY": 0.00018752, "INCLINATION": 0.0111, "RA_OF_ASC_NODE": 346.2955, "ARG_OF_PERICENTER": 283.9834, "MEAN_ANOMALY": 165.644, "EPHEMERIS_TYPE": 0, "CLASSIFICATION_TYPE": "U", "NORAD_CAT_ID": 36397, "ELEMENT_SET_NO": 999, "REV_AT_EPOCH": 5782, "BSTAR": 0, "MEAN_MOTION_DOT": -2.2e-06, "MEAN_MOTION_DDOT": 0}, "tle": {"line1": "1 36397U 10006A   25351.18349370 -.00000220  00000+0  00000+0 0  9999", "line2": "2 36397   0.0111 346.2955 0001875 283.9834 165.6440  1.00270972 57821"}}, "geometry": {"type": "Point", "coordinates": [-112.1477622258474, -0.03687263605133997]}}, {"type": "Feature", "properties": {"norad_id": 37185, "name": "XM-5", "group": "intelsat", "lat": -0.07114059285132565, "lon": -151.11405207370777, "alt_km": 35783.25459909625, "timestamp": "2025-12-17T15:50:09.444736+00:00", "meta": {"OBJECT_NAME": "XM-5", "OBJECT_ID": "2010-053A", "EPOCH": "2025-12-17T07:03:13.082688", "MEAN_MOTION": 1.00270552, "ECCENTRICITY": 0.00018477, "INCLINATION": 0.0639, "RA_OF_ASC_NODE": 272.5266, "ARG_OF_PERICENTER": 230.6899, "MEAN_ANOMALY": 293.5684, "EPHEMERIS_TYPE": 0, "CLASSIFICATION_TYPE": "U", "NORAD_CAT_ID": 37185, "ELEMENT_SET_NO": 999, "REV_AT_EPOCH": 5566, "BSTAR": 0, "MEAN_MOTION_DOT": 2e-08, "MEAN_MOTION_DDOT": 0}, "tle": {"line1": "1 37185U 10053A   25351.29390142  .00000002  00000+0  00000+0 0  9999", "line2": "2 37185   0.0639 272.5266 0001847 230.6899 293.5684  1.00270552 55662"}}, "geometry": {"type": "Point", "coordinates": [-151.11405207370777, -0.07114059285132565]}}, {"type": "Feature", "properties": {"norad_id": 37238, "name": "INTELSAT 17 (IS-17)", "group": "intelsat", "lat": 0.026007979599697785, "lon": 30.08438351872404, "alt_km": 35791.56883119749, "timestamp": "2025-12-17T15:50:09.444748+00:00", "meta": {"OBJECT_NAME": "INTELSAT 17 (IS-17)", "OBJECT_ID": "2010-065B", "EPOCH": "2025-12-17T03:22:04.809216", "MEAN_MOTION": 1.00270565, "ECCENTRICITY": 0.00026176, "INCLINATION": 0.0066, "RA_OF_ASC_NODE": 326.803, "ARG_OF_PERICENTER": 305.5707, "MEAN_ANOMALY": 290.1669, "EPHEMERIS_TYPE": 0, "CLASSIFICATION_TYPE": "U", "NORAD_CAT_ID": 37238, "ELEMENT_SET_NO": 999, "REV_AT_EPOCH": 5142, "BSTAR": 0, "MEAN_MOTION_DOT": 2.3e-07, "MEAN_MOTION_DDOT": 0}, "tle": {"line1": "1 37238U 10065B   25351.14033344  .00000023  00000+0  00000+0 0  9996", "line2": "2 37238   0.0066 326.8030 0002617 305.5707 290.1669  1.00270565 51423"}}, "geometry": {"type": "Point", "coordinates": [30.08438351872404, 0.026007979599697785]}}, {"type": "Feature", "properties": {"norad_id": 37392, "name": "INTELSAT 28 (IS-28)", "group": "intelsat", "lat": -0.6361916226613161, "lon": -67.60765603393814, "alt_km": 35771.99883841356, "timestamp": "2025-12-17T15:50:09.444760+00:00", "meta": {"OBJECT_NAME": "INTELSAT 28 (IS-28)", "OBJECT_ID": "2011-016A", "EPOCH": "2025-12-17T04:36:50.148576", "MEAN_MOTION": 1.00270879, "ECCENTRICITY": 0.00036946, "INCLINATION": 1.3357, "RA_OF_ASC_NODE": 85.006, "ARG_OF_PERICENTER": 184.9457, "MEAN_ANOMALY": 213.6505, "EPHEMERIS_TYPE": 0, "CLASSIFICATION_TYPE": "U", "NORAD_CAT_ID": 37392, "ELEMENT_SET_NO": 999, "REV_AT_EPOCH": 5146, "BSTAR": 0, "MEAN_MOTION_DOT": -2.01e-06, "MEAN_MOTION_DDOT": 0}, "tle": {"line1": "1 37392U 11016A   25351.19224709 -.00000201  00000+0  00000+0 0  9995", "line2": "2 37392   1.3357  85.0060 0003694 184.9457 213.6505  1.00270879 51466"}}, "geometry": {"type": "Point", "coordinates": [-67.60765603393814, -0.6361916226613161]}}]}